[{"OBJECT_NAME":"TRANSPORTER-10 OBJECT AD","OBJECT_ID":"2024-043AD","EPOCH":"2026-03-09T20:38:52.416960","MEAN_MOTION":15.34189901,"ECCENTRICITY":0.00089841,"INCLINATION":97.547,"RA_OF_ASC_NODE":207.3753,"ARG_OF_PERICENTER":221.4908,"MEAN_ANOMALY":138.5653,"EPHEMERIS_TYPE":0,"CLASSIFICATION_TYPE":"U","NORAD_CAT_ID":59125,"ELEMENT_SET_NO":999,"REV_AT_EPOCH":11202,"BSTAR":0.00036310552,"MEAN_MOTION_DOT":0.00011954,"MEAN_MOTION_DDOT":0},{"OBJECT_NAME":"STARLINK-32360","OBJECT_ID":"2024-158T","EPOCH":"2026-03-09T09:04:02.381376","MEAN_MOTION":15.30200889,"ECCENTRICITY":0.00010404,"INCLINATION":53.1605,"RA_OF_ASC_NODE":51.6751,"ARG_OF_PERICENTER":81.4572,"MEAN_ANOMALY":278.6547,"EPHEMERIS_TYPE":0,"CLASSIFICATION_TYPE":"U","NORAD_CAT_ID":61007,"ELEMENT_SET_NO":999,"REV_AT_EPOCH":8574,"BSTAR":-0.00011029885,"MEAN_MOTION_DOT":-3.624e-5,"MEAN_MOTION_DDOT":0}]
